[
    {
        "Altitude(m)": 569314.5319357958,
        "Argument of Periapsis(deg)": 0.0,
        "Eccentricity": 0.0,
        "Inclination(deg)": 53.0,
        "Latitude(deg)": -46.77323058699366,
        "Longitude(deg)": 167.90589844700344,
        "Mean Anomaly(deg)": 245.4545,
        "RAAN(deg)": 35.0,
        "Satellite Name": "Starlink Shell 1 169",
        "Satellite Number": 169,
        "Semi-Major Axis(m)": 6931778.249405717,
        "Time(s)": 0
    },
    {
        "Altitude(m)": 569436.0299537865,
        "Argument of Periapsis(deg)": 0.00034857847951123687,
        "Eccentricity": 0.0,
        "Inclination(deg)": 53.0,
        "Latitude(deg)": -47.072046216890804,
        "Longitude(deg)": 168.66649698505245,
        "Mean Anomaly(deg)": 246.0813312035567,
        "RAAN(deg)": 34.99948122992253,
        "Satellite Name": "Starlink Shell 1 169",
        "Satellite Number": 169,
        "Semi-Major Axis(m)": 6931778.249405717,
        "Time(s)": 10
    },
    {
        "Altitude(m)": 569555.0051539001,
        "Argument of Periapsis(deg)": 0.0006971569590224737,
        "Eccentricity": 0.0,
        "Inclination(deg)": 53.0,
        "Latitude(deg)": -47.365166803931395,
        "Longitude(deg)": 169.43600315963724,
        "Mean Anomaly(deg)": 246.7081624071134,
        "RAAN(deg)": 34.998962459845046,
        "Satellite Name": "Starlink Shell 1 169",
        "Satellite Number": 169,
        "Semi-Major Axis(m)": 6931778.249405717,
        "Time(s)": 20
    },
    {
        "Altitude(m)": 569671.410435883,
        "Argument of Periapsis(deg)": 0.0010457354385337105,
        "Eccentricity": 0.0,
        "Inclination(deg)": 53.0,
        "Latitude(deg)": -47.652471818625784,
        "Longitude(deg)": 170.2144318011869,
        "Mean Anomaly(deg)": 247.33499361067013,
        "RAAN(deg)": 34.998443689767576,
        "Satellite Name": "Starlink Shell 1 169",
        "Satellite Number": 169,
        "Semi-Major Axis(m)": 6931778.249405717,
        "Time(s)": 30
    },
    {
        "Altitude(m)": 569785.1996928202,
        "Argument of Periapsis(deg)": 0.0013943139180449475,
        "Eccentricity": 0.0,
        "Inclination(deg)": 53.0,
        "Latitude(deg)": -47.933839914061316,
        "Longitude(deg)": 171.00178824136879,
        "Mean Anomaly(deg)": 247.96182481422687,
        "RAAN(deg)": 34.99792491969011,
        "Satellite Name": "Starlink Shell 1 169",
        "Satellite Number": 169,
        "Semi-Major Axis(m)": 6931778.249405717,
        "Time(s)": 40
    },
    {
        "Altitude(m)": 569896.3278312905,
        "Argument of Periapsis(deg)": 0.0017428923975561844,
        "Eccentricity": 0.0,
        "Inclination(deg)": 53.0,
        "Latitude(deg)": -48.20914906555668,
        "Longitude(deg)": 171.79806675573207,
        "Mean Anomaly(deg)": 248.58865601778353,
        "RAAN(deg)": 34.99740614961263,
        "Satellite Name": "Starlink Shell 1 169",
        "Satellite Number": 169,
        "Semi-Major Axis(m)": 6931778.249405717,
        "Time(s)": 50
    },
    {
        "Altitude(m)": 570004.7507910853,
        "Argument of Periapsis(deg)": 0.002091470877067421,
        "Eccentricity": 0.0,
        "Inclination(deg)": 53.0,
        "Latitude(deg)": -48.47827672115154,
        "Longitude(deg)": 172.60325052138703,
        "Mean Anomaly(deg)": 249.21548722134028,
        "RAAN(deg)": 34.99688737953516,
        "Satellite Name": "Starlink Shell 1 169",
        "Satellite Number": 169,
        "Semi-Major Axis(m)": 6931778.249405717,
        "Time(s)": 60
    },
    {
        "Altitude(m)": 570110.4255644587,
        "Argument of Periapsis(deg)": 0.0024400493565786582,
        "Eccentricity": 0.0,
        "Inclination(deg)": 53.0,
        "Latitude(deg)": -48.74109996304739,
        "Longitude(deg)": 173.41731158023345,
        "Mean Anomaly(deg)": 249.842318424897,
        "RAAN(deg)": 34.99636860945769,
        "Satellite Name": "Starlink Shell 1 169",
        "Satellite Number": 169,
        "Semi-Major Axis(m)": 6931778.249405717,
        "Time(s)": 70
    },
    {
        "Altitude(m)": 570213.3102148825,
        "Argument of Periapsis(deg)": 0.002788627836089895,
        "Eccentricity": 0.0,
        "Inclination(deg)": 53.0,
        "Latitude(deg)": -48.99749568005254,
        "Longitude(deg)": 174.24020929853555,
        "Mean Anomaly(deg)": 250.4691496284537,
        "RAAN(deg)": 34.99584983938021,
        "Satellite Name": "Starlink Shell 1 169",
        "Satellite Number": 169,
        "Semi-Major Axis(m)": 6931778.249405717,
        "Time(s)": 80
    },
    {
        "Altitude(m)": 570313.3638953828,
        "Argument of Periapsis(deg)": 0.0031372063156011316,
        "Eccentricity": 0.0,
        "Inclination(deg)": 53.0,
        "Latitude(deg)": -49.24734075101987,
        "Longitude(deg)": 175.07189035253458,
        "Mean Anomaly(deg)": 251.09598083201038,
        "RAAN(deg)": 34.99533106930274,
        "Satellite Name": "Starlink Shell 1 169",
        "Satellite Number": 169,
        "Semi-Major Axis(m)": 6931778.249405717,
        "Time(s)": 90
    },
    {
        "Altitude(m)": 570410.5468663241,
        "Argument of Periapsis(deg)": 0.0034857847951123688,
        "Eccentricity": 0.0,
        "Inclination(deg)": 53.0,
        "Latitude(deg)": -49.49051223917836,
        "Longitude(deg)": 175.9122887314224,
        "Mean Anomaly(deg)": 251.72281203556716,
        "RAAN(deg)": 34.994812299225266,
        "Satellite Name": "Starlink Shell 1 169",
        "Satellite Number": 169,
        "Semi-Major Axis(m)": 6931778.249405717,
        "Time(s)": 100
    },
    {
        "Altitude(m)": 570504.8205127559,
        "Argument of Periapsis(deg)": 0.003834363274623606,
        "Eccentricity": 0.0,
        "Inclination(deg)": 53.0,
        "Latitude(deg)": -49.726887597174375,
        "Longitude(deg)": 176.76132424924566,
        "Mean Anomaly(deg)": 252.34964323912385,
        "RAAN(deg)": 34.9942935291478,
        "Satellite Name": "Starlink Shell 1 169",
        "Satellite Number": 169,
        "Semi-Major Axis(m)": 6931778.249405717,
        "Time(s)": 110
    },
    {
        "Altitude(m)": 570596.1473612185,
        "Argument of Periapsis(deg)": 0.004182941754134842,
        "Eccentricity": 0.0,
        "Inclination(deg)": 53.0,
        "Latitude(deg)": -49.95634488255399,
        "Longitude(deg)": 177.61890259613415,
        "Mean Anomaly(deg)": 252.97647444268057,
        "RAAN(deg)": 34.99377475907033,
        "Satellite Name": "Starlink Shell 1 169",
        "Satellite Number": 169,
        "Semi-Major Axis(m)": 6931778.249405717,
        "Time(s)": 120
    },
    {
        "Altitude(m)": 570684.4910960802,
        "Argument of Periapsis(deg)": 0.004531520233646079,
        "Eccentricity": 0.0,
        "Inclination(deg)": 53.0,
        "Latitude(deg)": -50.17876298331,
        "Longitude(deg)": 178.4849154208049,
        "Mean Anomaly(deg)": 253.6033056462373,
        "RAAN(deg)": 34.99325598899285,
        "Satellite Name": "Starlink Shell 1 169",
        "Satellite Number": 169,
        "Semi-Major Axis(m)": 6931778.249405717,
        "Time(s)": 130
    },
    {
        "Altitude(m)": 570769.8165753273,
        "Argument of Periapsis(deg)": 0.0048800987131573164,
        "Eccentricity": 0.0,
        "Inclination(deg)": 53.0,
        "Latitude(deg)": -50.394021853014806,
        "Longitude(deg)": 179.35923893643903,
        "Mean Anomaly(deg)": 254.23013684979398,
        "RAAN(deg)": 34.99273721891538,
        "Satellite Name": "Starlink Shell 1 169",
        "Satellite Number": 169,
        "Semi-Major Axis(m)": 6931778.249405717,
        "Time(s)": 140
    },
    {
        "Altitude(m)": 570852.0898458775,
        "Argument of Periapsis(deg)": 0.005228677192668553,
        "Eccentricity": 0.0,
        "Inclination(deg)": 53.0,
        "Latitude(deg)": -50.60200275495801,
        "Longitude(deg)": -179.75826591926796,
        "Mean Anomaly(deg)": 254.8569680533507,
        "RAAN(deg)": 34.99221844883791,
        "Satellite Name": "Starlink Shell 1 169",
        "Satellite Number": 169,
        "Semi-Major Axis(m)": 6931778.249405717,
        "Time(s)": 150
    },
    {
        "Altitude(m)": 570931.2781583242,
        "Argument of Periapsis(deg)": 0.00557725567217979,
        "Eccentricity": 0.0,
        "Inclination(deg)": 53.0,
        "Latitude(deg)": -50.80258851458794,
        "Longitude(deg)": -178.86775327765667,
        "Mean Anomaly(deg)": 255.4837992569074,
        "RAAN(deg)": 34.99169967876043,
        "Satellite Name": "Starlink Shell 1 169",
        "Satellite Number": 169,
        "Semi-Major Axis(m)": 6931778.249405717,
        "Time(s)": 160
    },
    {
        "Altitude(m)": 571007.3499811828,
        "Argument of Periapsis(deg)": 0.0059258341516910265,
        "Eccentricity": 0.0,
        "Inclination(deg)": 53.0,
        "Latitude(deg)": -50.99566377944123,
        "Longitude(deg)": -177.96939359404703,
        "Mean Anomaly(deg)": 256.11063046046417,
        "RAAN(deg)": 34.99118090868296,
        "Satellite Name": "Starlink Shell 1 169",
        "Satellite Number": 169,
        "Semi-Major Axis(m)": 6931778.249405717,
        "Time(s)": 170
    },
    {
        "Altitude(m)": 571080.2750145893,
        "Argument of Periapsis(deg)": 0.006274412631202263,
        "Eccentricity": 0.0,
        "Inclination(deg)": 53.0,
        "Latitude(deg)": -51.18111528563603,
        "Longitude(deg)": -177.0633733333323,
        "Mean Anomaly(deg)": 256.7374616640208,
        "RAAN(deg)": 34.99066213860549,
        "Satellite Name": "Starlink Shell 1 169",
        "Satellite Number": 169,
        "Semi-Major Axis(m)": 6931778.249405717,
        "Time(s)": 180
    }
]